start=new Date('2022-11-29T00:00:00.000Z').valueOf();
sats=[{"PERIAPSIS":"562.599","INCLINATION":"97.6541","REV_AT_EPOCH":"1399","NORAD_CAT_ID":"53673","TLE_LINE1":"1 53673U 22105AB  22332.91668981 -.00000095  00000-0 -28713-5 0  9996","SEMIMAJOR_AXIS":"6943.683","BSTAR":"-0.00000287130000","OBJECT_ID":"2022-105AB","OBJECT_TYPE":"PAYLOAD","LAUNCH_DATE":"2022-08-31","EPHEMERIS_TYPE":"0","REF_FRAME":"TEME","TLE_LINE2":"2 53673  97.6541 212.4848 0004247  80.3198 119.4879 15.00437549 13992","ARG_OF_PERICENTER":"80.3198","FILE":"3672634","CLASSIFICATION_TYPE":"U","MEAN_MOTION_DOT":"-0.00000095","MEAN_ANOMALY":"119.4879","MEAN_ELEMENT_THEORY":"SGP4","EPOCH":"2022-11-28T22:00:01.999584","SITE":"AFWTR","RA_OF_ASC_NODE":"212.4848","APOAPSIS":"568.497","ECCENTRICITY":"0.00042470","TIME_SYSTEM":"UTC","PERIOD":"95.972","RCS_SIZE":"LARGE","MEAN_MOTION_DDOT":"0.0000000000000","GP_ID":"219009135","CENTER_NAME":"EARTH","MEAN_MOTION":"15.00437549","ELEMENT_SET_NO":"999","DECAY_DATE":null,"OBJECT_NAME":"STARLINK-4456","COUNTRY_CODE":"US"},{"SITE":"AFWTR","EPOCH":"2022-11-28T22:00:01.999584","ECCENTRICITY":"0.00025500","APOAPSIS":"564.816","RA_OF_ASC_NODE":"211.8480","PERIOD":"95.920","TIME_SYSTEM":"UTC","RCS_SIZE":"LARGE","GP_ID":"219009281","MEAN_MOTION_DDOT":"0.0000000000000","CENTER_NAME":"EARTH","ELEMENT_SET_NO":"999","MEAN_MOTION":"15.01248813","DECAY_DATE":null,"OBJECT_NAME":"STARLINK-4620","COUNTRY_CODE":"US","PERIAPSIS":"561.276","REV_AT_EPOCH":"1396","INCLINATION":"97.6523","TLE_LINE1":"1 53674U 22105AC  22332.91668981 -.00000365  00000-0 -23826-4 0  9996","NORAD_CAT_ID":"53674","SEMIMAJOR_AXIS":"6941.181","OBJECT_ID":"2022-105AC","BSTAR":"-0.00002382600000","OBJECT_TYPE":"PAYLOAD","EPHEMERIS_TYPE":"0","LAUNCH_DATE":"2022-08-31","TLE_LINE2":"2 53674  97.6523 211.8480 0002550  75.9644 225.5049 15.01248813 13969","REF_FRAME":"TEME","FILE":"3672642","ARG_OF_PERICENTER":"75.9644","CLASSIFICATION_TYPE":"U","MEAN_ELEMENT_THEORY":"SGP4","MEAN_ANOMALY":"225.5049","MEAN_MOTION_DOT":"-0.00000365"},{"REF_FRAME":"TEME","TLE_LINE2":"2 53675  97.6530 211.8461 0002724  63.4571 217.9703 15.01256582 13965","LAUNCH_DATE":"2022-08-31","EPHEMERIS_TYPE":"0","OBJECT_TYPE":"PAYLOAD","BSTAR":"-0.00002921300000","OBJECT_ID":"2022-105AD","SEMIMAJOR_AXIS":"6941.157","NORAD_CAT_ID":"53675","TLE_LINE1":"1 53675U 22105AD  22332.91668981 -.00000434  00000-0 -29213-4 0  9990","REV_AT_EPOCH":"1396","PERIAPSIS":"561.132","INCLINATION":"97.6530","MEAN_MOTION_DOT":"-0.00000434","MEAN_ELEMENT_THEORY":"SGP4","MEAN_ANOMALY":"217.9703","CLASSIFICATION_TYPE":"U","ARG_OF_PERICENTER":"63.4571","FILE":"3672635","CENTER_NAME":"EARTH","GP_ID":"219009215","MEAN_MOTION_DDOT":"0.0000000000000","RCS_SIZE":"LARGE","PERIOD":"95.920","TIME_SYSTEM":"UTC","RA_OF_ASC_NODE":"211.8461","APOAPSIS":"564.913","ECCENTRICITY":"0.00027240","EPOCH":"2022-11-28T22:00:01.999584","SITE":"AFWTR","COUNTRY_CODE":"US","OBJECT_NAME":"STARLINK-4617","DECAY_DATE":null,"MEAN_MOTION":"15.01256582","ELEMENT_SET_NO":"999"},{"RCS_SIZE":"LARGE","PERIOD":"95.919","TIME_SYSTEM":"UTC","RA_OF_ASC_NODE":"211.8484","APOAPSIS":"564.431","ECCENTRICITY":"0.00020590","EPOCH":"2022-11-28T22:00:01.999584","SITE":"AFWTR","CENTER_NAME":"EARTH","MEAN_MOTION_DDOT":"0.0000000000000","GP_ID":"219009218","DECAY_DATE":null,"MEAN_MOTION":"15.01263185","ELEMENT_SET_NO":"999","COUNTRY_CODE":"US","OBJECT_NAME":"STARLINK-4621","BSTAR":"-0.00022040000000","OBJECT_ID":"2022-105AE","SEMIMAJOR_AXIS":"6941.137","NORAD_CAT_ID":"53676","TLE_LINE1":"1 53676U 22105AE  22332.91668981 -.00002889  00000-0 -22040-3 0  9997","PERIAPSIS":"561.573","INCLINATION":"97.6541","REV_AT_EPOCH":"1396","TLE_LINE2":"2 53676  97.6541 211.8484 0002059  84.8264 236.6352 15.01263185 13965","REF_FRAME":"TEME","LAUNCH_DATE":"2022-08-31","EPHEMERIS_TYPE":"0","OBJECT_TYPE":"PAYLOAD","MEAN_MOTION_DOT":"-0.00002889","MEAN_ANOMALY":"236.6352","MEAN_ELEMENT_THEORY":"SGP4","CLASSIFICATION_TYPE":"U","ARG_OF_PERICENTER":"84.8264","FILE":"3672635"},{"REF_FRAME":"TEME","TLE_LINE2":"2 53677  97.6525 211.5203 0002721  67.2631 223.7805 15.01220277 13913","LAUNCH_DATE":"2022-08-31","EPHEMERIS_TYPE":"0","OBJECT_TYPE":"PAYLOAD","BSTAR":"0.00491700000000","OBJECT_ID":"2022-105AF","SEMIMAJOR_AXIS":"6941.269","NORAD_CAT_ID":"53677","TLE_LINE1":"1 53677U 22105AF  22332.58334491  .00063604  00000-0  49170-2 0  9999","PERIAPSIS":"561.246","INCLINATION":"97.6525","REV_AT_EPOCH":"1391","MEAN_MOTION_DOT":"0.00063604","MEAN_ANOMALY":"223.7805","MEAN_ELEMENT_THEORY":"SGP4","CLASSIFICATION_TYPE":"U","ARG_OF_PERICENTER":"67.2631","FILE":"3672391","CENTER_NAME":"EARTH","MEAN_MOTION_DDOT":"0.0000000000000","GP_ID":"219004229","RCS_SIZE":"LARGE","PERIOD":"95.922","TIME_SYSTEM":"UTC","RA_OF_ASC_NODE":"211.5203","APOAPSIS":"565.023","ECCENTRICITY":"0.00027210","EPOCH":"2022-11-28T14:00:01.000224","SITE":"AFWTR","COUNTRY_CODE":"US","OBJECT_NAME":"STARLINK-4579","DECAY_DATE":null,"MEAN_MOTION":"15.01220277","ELEMENT_SET_NO":"999"},{"OBJECT_NAME":"STARLINK-4418","COUNTRY_CODE":"US","MEAN_MOTION":"15.01221798","ELEMENT_SET_NO":"999","DECAY_DATE":null,"CENTER_NAME":"EARTH","GP_ID":"219004682","MEAN_MOTION_DDOT":"0.0000000000000","RA_OF_ASC_NODE":"211.5223","APOAPSIS":"564.471","ECCENTRICITY":"0.00019330","EPOCH":"2022-11-28T14:00:01.000224","SITE":"AFWTR","RCS_SIZE":"LARGE","PERIOD":"95.922","TIME_SYSTEM":"UTC","CLASSIFICATION_TYPE":"U","ARG_OF_PERICENTER":"90.9062","FILE":"3672392","MEAN_MOTION_DOT":"0.00060020","MEAN_ELEMENT_THEORY":"SGP4","MEAN_ANOMALY":"240.1387","LAUNCH_DATE":"2022-08-31","EPHEMERIS_TYPE":"0","OBJECT_TYPE":"PAYLOAD","TLE_LINE2":"2 53678  97.6531 211.5223 0001933  90.9062 240.1387 15.01221798 13915","REF_FRAME":"TEME","NORAD_CAT_ID":"53678","TLE_LINE1":"1 53678U 22105AG  22332.58334491  .00060020  00000-0  46425-2 0  9999","INCLINATION":"97.6531","PERIAPSIS":"561.788","REV_AT_EPOCH":"1391","BSTAR":"0.00464250000000","OBJECT_ID":"2022-105AG","SEMIMAJOR_AXIS":"6941.265"},{"CLASSIFICATION_TYPE":"U","FILE":"3672635","ARG_OF_PERICENTER":"94.3276","MEAN_ELEMENT_THEORY":"SGP4","MEAN_ANOMALY":"217.1513","MEAN_MOTION_DOT":"-0.00000287","EPHEMERIS_TYPE":"0","LAUNCH_DATE":"2022-08-31","OBJECT_TYPE":"PAYLOAD","REF_FRAME":"TEME","TLE_LINE2":"2 53679  97.6526 211.8484 0002071  94.3276 217.1513 15.01256250 13962","TLE_LINE1":"1 53679U 22105AH  22332.91668981 -.00000287  00000-0 -17757-4 0  9990","NORAD_CAT_ID":"53679","PERIAPSIS":"561.586","INCLINATION":"97.6526","REV_AT_EPOCH":"1396","OBJECT_ID":"2022-105AH","BSTAR":"-0.00001775700000","SEMIMAJOR_AXIS":"6941.158","OBJECT_NAME":"STARLINK-4632","COUNTRY_CODE":"US","ELEMENT_SET_NO":"999","MEAN_MOTION":"15.01256250","DECAY_DATE":null,"CENTER_NAME":"EARTH","MEAN_MOTION_DDOT":"0.0000000000000","GP_ID":"219009154","ECCENTRICITY":"0.00020710","APOAPSIS":"564.461","RA_OF_ASC_NODE":"211.8484","SITE":"AFWTR","EPOCH":"2022-11-28T22:00:01.999584","RCS_SIZE":"LARGE","TIME_SYSTEM":"UTC","PERIOD":"95.920"},{"ECCENTRICITY":"0.00023550","RA_OF_ASC_NODE":"211.8495","APOAPSIS":"564.685","SITE":"AFWTR","EPOCH":"2022-11-28T22:00:01.999584","RCS_SIZE":"LARGE","TIME_SYSTEM":"UTC","PERIOD":"95.920","CENTER_NAME":"EARTH","MEAN_MOTION_DDOT":"0.0000000000000","GP_ID":"219009232","ELEMENT_SET_NO":"999","MEAN_MOTION":"15.01247394","DECAY_DATE":null,"OBJECT_NAME":"STARLINK-4630","COUNTRY_CODE":"US","TLE_LINE1":"1 53680U 22105AJ  22332.91668981 -.00010574  00000-0 -82010-3 0  9995","NORAD_CAT_ID":"53680","PERIAPSIS":"561.416","INCLINATION":"97.6529","REV_AT_EPOCH":"1396","OBJECT_ID":"2022-105AJ","BSTAR":"-0.00082010000000","SEMIMAJOR_AXIS":"6941.186","EPHEMERIS_TYPE":"0","LAUNCH_DATE":"2022-08-31","OBJECT_TYPE":"PAYLOAD","REF_FRAME":"TEME","TLE_LINE2":"2 53680  97.6529 211.8495 0002355 118.9606 232.5456 15.01247394 13960","CLASSIFICATION_TYPE":"U","FILE":"3672638","ARG_OF_PERICENTER":"118.9606","MEAN_ELEMENT_THEORY":"SGP4","MEAN_ANOMALY":"232.5456","MEAN_MOTION_DOT":"-0.00010574"},{"COUNTRY_CODE":"US","OBJECT_NAME":"STARLINK-4424","DECAY_DATE":null,"ELEMENT_SET_NO":"999","MEAN_MOTION":"15.01233574","CENTER_NAME":"EARTH","MEAN_MOTION_DDOT":"0.0000000000000","GP_ID":"219004239","RCS_SIZE":"LARGE","TIME_SYSTEM":"UTC","PERIOD":"95.921","ECCENTRICITY":"0.00020280","RA_OF_ASC_NODE":"211.5224","APOAPSIS":"564.501","SITE":"AFWTR","EPOCH":"2022-11-28T14:00:01.000224","MEAN_ELEMENT_THEORY":"SGP4","MEAN_ANOMALY":"234.0857","MEAN_MOTION_DOT":"0.00060893","CLASSIFICATION_TYPE":"U","FILE":"3672392","ARG_OF_PERICENTER":"95.6020","TLE_LINE2":"2 53681  97.6529 211.5224 0002028  95.6020 234.0857 15.01233574 13918","REF_FRAME":"TEME","EPHEMERIS_TYPE":"0","LAUNCH_DATE":"2022-08-31","OBJECT_TYPE":"PAYLOAD","OBJECT_ID":"2022-105AK","BSTAR":"0.00470790000000","SEMIMAJOR_AXIS":"6941.228","TLE_LINE1":"1 53681U 22105AK  22332.58334491  .00060893  00000-0  47079-2 0  9997","NORAD_CAT_ID":"53681","PERIAPSIS":"561.686","INCLINATION":"97.6529","REV_AT_EPOCH":"1391"},{"EPHEMERIS_TYPE":"0","LAUNCH_DATE":"2022-08-31","OBJECT_TYPE":"PAYLOAD","REF_FRAME":"TEME","TLE_LINE2":"2 53682  97.6538 211.8493 0002234 124.1357 246.0211 15.01248317 13963","TLE_LINE1":"1 53682U 22105AL  22332.91668981  .00001067  00000-0  87681-4 0  9992","NORAD_CAT_ID":"53682","PERIAPSIS":"561.497","REV_AT_EPOCH":"1396","INCLINATION":"97.6538","OBJECT_ID":"2022-105AL","BSTAR":"0.00008768100000","SEMIMAJOR_AXIS":"6941.183","CLASSIFICATION_TYPE":"U","FILE":"3672642","ARG_OF_PERICENTER":"124.1357","MEAN_ANOMALY":"246.0211","MEAN_ELEMENT_THEORY":"SGP4","MEAN_MOTION_DOT":"0.00001067","CENTER_NAME":"EARTH","MEAN_MOTION_DDOT":"0.0000000000000","GP_ID":"219009560","ECCENTRICITY":"0.00022340","APOAPSIS":"564.599","RA_OF_ASC_NODE":"211.8493","SITE":"AFWTR","EPOCH":"2022-11-28T22:00:01.999584","RCS_SIZE":"LARGE","PERIOD":"95.920","TIME_SYSTEM":"UTC","OBJECT_NAME":"STARLINK-4438","COUNTRY_CODE":"US","ELEMENT_SET_NO":"999","MEAN_MOTION":"15.01248317","DECAY_DATE":null}];
